[{"OBJECT_NAME":"ONEWEB-0647","OBJECT_ID":"2023-043AK","EPOCH":"2025-07-31T13:02:37.397760","MEAN_MOTION":13.15550206,"ECCENTRICITY":0.0002142,"INCLINATION":87.9087,"RA_OF_ASC_NODE":323.1806,"ARG_OF_PERICENTER":98.7041,"MEAN_ANOMALY":261.4332,"EPHEMERIS_TYPE":0,"CLASSIFICATION_TYPE":"U","NORAD_CAT_ID":56079,"ELEMENT_SET_NO":999,"REV_AT_EPOCH":11426,"BSTAR":0.00040138,"MEAN_MOTION_DOT":1.64e-6,"MEAN_MOTION_DDOT":0},{"OBJECT_NAME":"ONEWEB-0651","OBJECT_ID":"2023-043AL","EPOCH":"2025-07-31T12:55:47.129952","MEAN_MOTION":13.15545802,"ECCENTRICITY":0.0002,"INCLINATION":87.9089,"RA_OF_ASC_NODE":323.1709,"ARG_OF_PERICENTER":109.7134,"MEAN_ANOMALY":250.4212,"EPHEMERIS_TYPE":0,"CLASSIFICATION_TYPE":"U","NORAD_CAT_ID":56080,"ELEMENT_SET_NO":999,"REV_AT_EPOCH":11546,"BSTAR":0.002974,"MEAN_MOTION_DOT":1.133e-5,"MEAN_MOTION_DDOT":0},{"OBJECT_NAME":"ONEWEB-0718","OBJECT_ID":"2023-043AM","EPOCH":"2025-07-31T20:07:00.953472","MEAN_MOTION":13.15549876,"ECCENTRICITY":0.0001462,"INCLINATION":87.9089,"RA_OF_ASC_NODE":323.0945,"ARG_OF_PERICENTER":96.3803,"MEAN_ANOMALY":263.7493,"EPHEMERIS_TYPE":0,"CLASSIFICATION_TYPE":"U","NORAD_CAT_ID":56081,"ELEMENT_SET_NO":999,"REV_AT_EPOCH":11522,"BSTAR":0.00021878,"MEAN_MOTION_DOT":9.5e-7,"MEAN_MOTION_DDOT":0},{"OBJECT_NAME":"ONEWEB-0561","OBJECT_ID":"2023-068A","EPOCH":"2025-07-31T14:16:50.541888","MEAN_MOTION":13.20771487,"ECCENTRICITY":0.0002382,"INCLINATION":87.9283,"RA_OF_ASC_NODE":338.3319,"ARG_OF_PERICENTER":102.6429,"MEAN_ANOMALY":257.497,"EPHEMERIS_TYPE":0,"CLASSIFICATION_TYPE":"U","NORAD_CAT_ID":56710,"ELEMENT_SET_NO":999,"REV_AT_EPOCH":10718,"BSTAR":0.00033949,"MEAN_MOTION_DOT":1.51e-6,"MEAN_MOTION_DDOT":0},{"OBJECT_NAME":"ONEWEB-0668","OBJECT_ID":"2023-068B","EPOCH":"2025-07-31T14:20:18.768480","MEAN_MOTION":13.16596412,"ECCENTRICITY":0.000143,"INCLINATION":87.9056,"RA_OF_ASC_NODE":292.6591,"ARG_OF_PERICENTER":102.7474,"MEAN_ANOMALY":257.3816,"EPHEMERIS_TYPE":0,"CLASSIFICATION_TYPE":"U","NORAD_CAT_ID":56711,"ELEMENT_SET_NO":999,"REV_AT_EPOCH":10959,"BSTAR":0.00030854,"MEAN_MOTION_DOT":1.31e-6,"MEAN_MOTION_DDOT":0},{"OBJECT_NAME":"ONEWEB-0676","OBJECT_ID":"2023-068C","EPOCH":"2025-07-31T12:02:24.006336","MEAN_MOTION":13.16596445,"ECCENTRICITY":0.0002456,"INCLINATION":87.9046,"RA_OF_ASC_NODE":292.7012,"ARG_OF_PERICENTER":103.5534,"MEAN_ANOMALY":256.5871,"EPHEMERIS_TYPE":0,"CLASSIFICATION_TYPE":"U","NORAD_CAT_ID":56712,"ELEMENT_SET_NO":999,"REV_AT_EPOCH":10950,"BSTAR":0.00043541,"MEAN_MOTION_DOT":1.79e-6,"MEAN_MOTION_DDOT":0},{"OBJECT_NAME":"ONEWEB-0677","OBJECT_ID":"2023-068D","EPOCH":"2025-07-31T14:00:57.576672","MEAN_MOTION":13.20772295,"ECCENTRICITY":0.0001963,"INCLINATION":87.928,"RA_OF_ASC_NODE":338.3108,"ARG_OF_PERICENTER":107.1992,"MEAN_ANOMALY":252.9356,"EPHEMERIS_TYPE":0,"CLASSIFICATION_TYPE":"U","NORAD_CAT_ID":56713,"ELEMENT_SET_NO":999,"REV_AT_EPOCH":10748,"BSTAR":0.00012616,"MEAN_MOTION_DOT":6.4e-7,"MEAN_MOTION_DDOT":0},{"OBJECT_NAME":"ONEWEB-0678","OBJECT_ID":"2023-068E","EPOCH":"2025-07-31T08:24:15.282432","MEAN_MOTION":13.15549704,"ECCENTRICITY":0.0002161,"INCLINATION":87.9091,"RA_OF_ASC_NODE":323.1628,"ARG_OF_PERICENTER":92.9013,"MEAN_ANOMALY":267.2365,"EPHEMERIS_TYPE":0,"CLASSIFICATION_TYPE":"U","NORAD_CAT_ID":56714,"ELEMENT_SET_NO":999,"REV_AT_EPOCH":10710,"BSTAR":-0.00010825,"MEAN_MOTION_DOT":-2.8e-7,"MEAN_MOTION_DDOT":0},{"OBJECT_NAME":"ONEWEB-0679","OBJECT_ID":"2023-068F","EPOCH":"2025-07-31T14:56:48.430464","MEAN_MOTION":13.16595732,"ECCENTRICITY":0.0001919,"INCLINATION":87.9046,"RA_OF_ASC_NODE":292.6692,"ARG_OF_PERICENTER":114.3287,"MEAN_ANOMALY":245.8044,"EPHEMERIS_TYPE":0,"CLASSIFICATION_TYPE":"U","NORAD_CAT_ID":56715,"ELEMENT_SET_NO":999,"REV_AT_EPOCH":10954,"BSTAR":-0.00023046,"MEAN_MOTION_DOT":-7.5e-7,"MEAN_MOTION_DDOT":0},{"OBJECT_NAME":"ONEWEB-0680","OBJECT_ID":"2023-068G","EPOCH":"2025-07-31T12:33:07.155072","MEAN_MOTION":13.21825886,"ECCENTRICITY":0.0001455,"INCLINATION":87.9265,"RA_OF_ASC_NODE":307.939,"ARG_OF_PERICENTER":111.025,"MEAN_ANOMALY":249.104,"EPHEMERIS_TYPE":0,"CLASSIFICATION_TYPE":"U","NORAD_CAT_ID":56716,"ELEMENT_SET_NO":999,"REV_AT_EPOCH":10873,"BSTAR":0.00029911,"MEAN_MOTION_DOT":1.37e-6,"MEAN_MOTION_DDOT":0},{"OBJECT_NAME":"ONEWEB-0681","OBJECT_ID":"2023-068H","EPOCH":"2025-07-31T19:39:18.288288","MEAN_MOTION":13.23383819,"ECCENTRICITY":0.0002746,"INCLINATION":87.9269,"RA_OF_ASC_NODE":307.9019,"ARG_OF_PERICENTER":116.1221,"MEAN_ANOMALY":244.0196,"EPHEMERIS_TYPE":0,"CLASSIFICATION_TYPE":"U","NORAD_CAT_ID":56717,"ELEMENT_SET_NO":999,"REV_AT_EPOCH":10946,"BSTAR":7.5454e-5,"MEAN_MOTION_DOT":4.5e-7,"MEAN_MOTION_DDOT":0},{"OBJECT_NAME":"ONEWEB-0682","OBJECT_ID":"2023-068J","EPOCH":"2025-07-31T09:01:53.976288","MEAN_MOTION":13.15548522,"ECCENTRICITY":0.0001511,"INCLINATION":87.9069,"RA_OF_ASC_NODE":323.1849,"ARG_OF_PERICENTER":110.9412,"MEAN_ANOMALY":249.1881,"EPHEMERIS_TYPE":0,"CLASSIFICATION_TYPE":"U","NORAD_CAT_ID":56718,"ELEMENT_SET_NO":999,"REV_AT_EPOCH":10727,"BSTAR":0.00050744,"MEAN_MOTION_DOT":2.04e-6,"MEAN_MOTION_DDOT":0},{"OBJECT_NAME":"ONEWEB-0683","OBJECT_ID":"2023-068K","EPOCH":"2025-07-31T13:11:43.880352","MEAN_MOTION":13.15550792,"ECCENTRICITY":0.0001633,"INCLINATION":87.9087,"RA_OF_ASC_NODE":323.1233,"ARG_OF_PERICENTER":103.6897,"MEAN_ANOMALY":256.4415,"EPHEMERIS_TYPE":0,"CLASSIFICATION_TYPE":"U","NORAD_CAT_ID":56719,"ELEMENT_SET_NO":999,"REV_AT_EPOCH":10726,"BSTAR":0.00019317,"MEAN_MOTION_DOT":8.6e-7,"MEAN_MOTION_DDOT":0},{"OBJECT_NAME":"ONEWEB-0684","OBJECT_ID":"2023-068L","EPOCH":"2025-07-31T07:54:34.690752","MEAN_MOTION":13.15550017,"ECCENTRICITY":0.000259,"INCLINATION":87.9061,"RA_OF_ASC_NODE":323.1747,"ARG_OF_PERICENTER":66.3283,"MEAN_ANOMALY":293.8119,"EPHEMERIS_TYPE":0,"CLASSIFICATION_TYPE":"U","NORAD_CAT_ID":56720,"ELEMENT_SET_NO":999,"REV_AT_EPOCH":10706,"BSTAR":-0.00011674,"MEAN_MOTION_DOT":-3.1e-7,"MEAN_MOTION_DDOT":0},{"OBJECT_NAME":"ONEWEB-0686","OBJECT_ID":"2023-068M","EPOCH":"2025-07-31T14:41:59.235360","MEAN_MOTION":13.16595807,"ECCENTRICITY":0.0001729,"INCLINATION":87.9041,"RA_OF_ASC_NODE":292.7045,"ARG_OF_PERICENTER":94.2513,"MEAN_ANOMALY":265.8816,"EPHEMERIS_TYPE":0,"CLASSIFICATION_TYPE":"U","NORAD_CAT_ID":56721,"ELEMENT_SET_NO":999,"REV_AT_EPOCH":10953,"BSTAR":6.3677e-5,"MEAN_MOTION_DOT":3.7e-7,"MEAN_MOTION_DDOT":0},{"OBJECT_NAME":"ONEWEB-0694","OBJECT_ID":"2023-068N","EPOCH":"2025-07-31T13:54:07.535232","MEAN_MOTION":13.16593143,"ECCENTRICITY":0.0001638,"INCLINATION":87.9056,"RA_OF_ASC_NODE":292.6338,"ARG_OF_PERICENTER":106.7855,"MEAN_ANOMALY":253.3456,"EPHEMERIS_TYPE":0,"CLASSIFICATION_TYPE":"U","NORAD_CAT_ID":56722,"ELEMENT_SET_NO":999,"REV_AT_EPOCH":10958,"BSTAR":9.0417e-5,"MEAN_MOTION_DOT":4.7e-7,"MEAN_MOTION_DDOT":0},{"OBJECT_NAME":"ONEWEB-0696","OBJECT_ID":"2023-068P","EPOCH":"2025-07-31T14:11:03.784992","MEAN_MOTION":13.15550236,"ECCENTRICITY":0.0002108,"INCLINATION":87.9085,"RA_OF_ASC_NODE":323.1681,"ARG_OF_PERICENTER":93.1937,"MEAN_ANOMALY":266.9434,"EPHEMERIS_TYPE":0,"CLASSIFICATION_TYPE":"U","NORAD_CAT_ID":56723,"ELEMENT_SET_NO":999,"REV_AT_EPOCH":10721,"BSTAR":-6.4047e-5,"MEAN_MOTION_DOT":-1.1e-7,"MEAN_MOTION_DDOT":0}]
