ONEWEB-0647             
1 56079U 23043AK  25212.54348840  .00000164  00000+0  40138-3 0  9996
2 56079  87.9087 323.1806 0002142  98.7041 261.4332 13.15550206114262
ONEWEB-0651             
1 56080U 23043AL  25212.53873993  .00001133  00000+0  29740-2 0  9991
2 56080  87.9089 323.1709 0002000 109.7134 250.4212 13.15545802115461
ONEWEB-0718             
1 56081U 23043AM  25212.83820548  .00000095  00000+0  21878-3 0  9994
2 56081  87.9089 323.0945 0001462  96.3803 263.7493 13.15549876115225
ONEWEB-0561             
1 56710U 23068A   25212.59502942  .00000151  00000+0  33949-3 0  9993
2 56710  87.9283 338.3319 0002382 102.6429 257.4970 13.20771487107188
ONEWEB-0668             
1 56711U 23068B   25212.59743945  .00000131  00000+0  30854-3 0  9994
2 56711  87.9056 292.6591 0001430 102.7474 257.3816 13.16596412109598
ONEWEB-0676             
1 56712U 23068C   25212.50166674  .00000179  00000+0  43541-3 0  9993
2 56712  87.9046 292.7012 0002456 103.5534 256.5871 13.16596445109501
ONEWEB-0677             
1 56713U 23068D   25212.58399973  .00000064  00000+0  12616-3 0  9994
2 56713  87.9280 338.3108 0001963 107.1992 252.9356 13.20772295107482
ONEWEB-0678             
1 56714U 23068E   25212.35017688 -.00000028  00000+0 -10825-3 0  9992
2 56714  87.9091 323.1628 0002161  92.9013 267.2365 13.15549704107107
ONEWEB-0679             
1 56715U 23068F   25212.62278276 -.00000075  00000+0 -23046-3 0  9996
2 56715  87.9046 292.6692 0001919 114.3287 245.8044 13.16595732109540
ONEWEB-0680             
1 56716U 23068G   25212.52299948  .00000137  00000+0  29911-3 0  9999
2 56716  87.9265 307.9390 0001455 111.0250 249.1040 13.21825886108733
ONEWEB-0681             
1 56717U 23068H   25212.81896167  .00000045  00000+0  75454-4 0  9990
2 56717  87.9269 307.9019 0002746 116.1221 244.0196 13.23383819109468
ONEWEB-0682             
1 56718U 23068J   25212.37631917  .00000204  00000+0  50744-3 0  9993
2 56718  87.9069 323.1849 0001511 110.9412 249.1881 13.15548522107270
ONEWEB-0683             
1 56719U 23068K   25212.54981343  .00000086  00000+0  19317-3 0  9993
2 56719  87.9087 323.1233 0001633 103.6897 256.4415 13.15550792107264
ONEWEB-0684             
1 56720U 23068L   25212.32956818 -.00000031  00000+0 -11674-3 0  9990
2 56720  87.9061 323.1747 0002590  66.3283 293.8119 13.15550017107069
ONEWEB-0686             
1 56721U 23068M   25212.61249115  .00000037  00000+0  63677-4 0  9993
2 56721  87.9041 292.7045 0001729  94.2513 265.8816 13.16595807109533
ONEWEB-0694             
1 56722U 23068N   25212.57925388  .00000047  00000+0  90417-4 0  9995
2 56722  87.9056 292.6338 0001638 106.7855 253.3456 13.16593143109589
ONEWEB-0696             
1 56723U 23068P   25212.59101603 -.00000011  00000+0 -64047-4 0  9997
2 56723  87.9085 323.1681 0002108  93.1937 266.9434 13.15550236107215
